[{"OBJECT_NAME":"QIANFAN-39","OBJECT_ID":"2024-232D","EPOCH":"2026-03-09T21:25:16.059072","MEAN_MOTION":14.25440879,"ECCENTRICITY":0.00171102,"INCLINATION":89.0064,"RA_OF_ASC_NODE":27.3413,"ARG_OF_PERICENTER":145.5992,"MEAN_ANOMALY":214.6313,"EPHEMERIS_TYPE":0,"CLASSIFICATION_TYPE":"U","NORAD_CAT_ID":62240,"ELEMENT_SET_NO":999,"REV_AT_EPOCH":11380,"BSTAR":0.00022622412,"MEAN_MOTION_DOT":5.49e-6,"MEAN_MOTION_DDOT":0},{"OBJECT_NAME":"CZ-6A DEB","OBJECT_ID":"2024-140ED","EPOCH":"2026-03-09T14:03:07.627680","MEAN_MOTION":14.19967568,"ECCENTRICITY":0.0056375,"INCLINATION":88.9649,"RA_OF_ASC_NODE":283.8925,"ARG_OF_PERICENTER":159.5414,"MEAN_ANOMALY":200.8052,"EPHEMERIS_TYPE":0,"CLASSIFICATION_TYPE":"U","NORAD_CAT_ID":60754,"ELEMENT_SET_NO":999,"REV_AT_EPOCH":8024,"BSTAR":0.00097631,"MEAN_MOTION_DOT":2.122e-5,"MEAN_MOTION_DDOT":0}]
